2024-125F               
1 60208U 24125F   24199.11933743  .00012792  00000+0  59652-3 0  9996
2 60208  97.3221  51.6293 0026773 209.4300 150.5429 15.19674175  1970
MESAT1                  
1 60209U 24125G   24199.12255324  .00015234  00000+0  71734-3 0  9999
2 60209  97.3222  51.6252 0025796 215.8933 144.0569 15.19321115  1969
FIREFLY ALPHA R/B       
1 60210U 24125H   24199.12569463  .00012684  00000+0  46733-3 0  9990
2 60210  97.3142  52.9811 0050384 207.5181 152.3389 15.26739557  1964
TIANHUI 5C              
1 60211U 24126A   24200.58732009  .00001339  00000+0  15332-3 0  9999
2 60211  97.8287 206.8767 0001272  87.2041 272.9321 14.87590509  2021
TIANHUI 5D              
1 60212U 24126B   24200.58738834  .00001302  00000+0  14928-3 0  9992
2 60212  97.8284 206.8765 0001319 102.0769 258.0595 14.87590759  2038
CZ-6A DEB               
1 60213U 24126C   24200.59230701  .00015322  00000+0  17204-2 0  9990
2 60213  97.8270 206.8675 0003612 142.2218 217.9252 14.86842190  2039
CZ-6A R/B               
1 60214U 24126D   24200.56052744  .00008321  00000+0  55046-3 0  9995
2 60214  97.8185 207.2074 0079957 343.3217  16.5381 15.04989986  1997
TURKSAT 6A              
1 60233U 24127A   24191.92276676 -.00000384  00000+0  00000+0 0  9996
2 60233  24.1004 112.2497 8365486 179.7724 343.5421  1.03176805    14
FALCON 9 R/B            
1 60234U 24127B   24192.44448505  .00038298  00000+0  28399+0 0  9992
2 60234  24.0683 112.1208 8359195 179.9835 180.1128  1.03874465    17
2024-128A               
1 60235U 24128A   24200.55787031  .00005125  00000+0  48288-3 0  9992
2 60235  61.9966 131.5554 0016720 259.4538 100.4666 14.94954118  1304
2024-128B               
1 60236U 24128B   24200.48011519  .00004531  00000+0  40975-3 0  9991
2 60236  61.9945 131.7429 0010101 283.0408  76.9552 14.96831461  1297
GRBBETA                 
1 60237U 24128C   24200.47995113  .00007562  00000+0  67127-3 0  9997
2 60237  61.9945 131.7417 0010089 282.7843  77.2118 14.96882531  1284
2024-128D               
1 60238U 24128D   24200.47971037  .00010550  00000+0  92784-3 0  9995
2 60238  61.9945 131.7408 0010068 282.7837  77.2126 14.96947597  1299
2024-128E               
1 60239U 24128E   24200.54796658  .00003179  00000+0  29385-3 0  9994
2 60239  62.0140 131.5448 0008960 294.9925  65.0232 14.96662796  1302
OOV-CUBE                
1 60240U 24128F   24200.54983816  .00005412  00000+0  49214-3 0  9995
2 60240  61.9980 131.5329 0010164 264.7895  95.2033 14.96337716  1307
2024-128G               
1 60241U 24128G   24200.54630245  .00008379  00000+0  74022-3 0  9991
2 60241  61.9947 131.5092 0010022 284.7072  75.2905 14.96966205  1307
2024-128H               
1 60242U 24128H   24200.55257576  .00011571  00000+0  10423-2 0  9997
2 60242  61.9854 131.5182 0013307 266.0991  93.8575 14.95911287  1305
ROBUSTA 3A              
1 60243U 24128J   24200.55364680  .00011249  00000+0  10187-2 0  9992
2 60243  61.9920 131.5373 0012839 255.9264 104.0396 14.95728391  1309
STARLINK-11202 [DTC]    
1 60245U 24129B   24200.55133826  .02679203  11994-4  59494-3 0  9997
2 60245  53.1126  25.5732 0054908  87.4592  13.3810 16.25031454  1820
CATSAT                  
1 60246U 24125J   24198.68755259  .00037208  00000+0  17068-2 0  9996
2 60246  97.3064  52.5632 0053597 170.9140 276.8737 15.19027249    14
NOAA 1                  
1 04793U 70106A   24200.61768252 -.00000024  00000+0  11794-3 0  9993
2 04793 101.4441 251.6848 0031038 275.3764 207.3031 12.54029760453120
NOAA 2 (ITOS-D)         
1 06235U 72082A   24200.62716484 -.00000014  00000+0  20164-3 0  9992
2 06235 102.0156 199.9615 0004482  63.5929  48.0364 12.53182663367441
NOAA 3                  
1 06920U 73086A   24200.58859939 -.00000011  00000+0  25976-3 0  9999
2 06920 102.2764 196.8515 0006376 332.0893 140.7704 12.40368743295283
NOAA 4                  
1 07529U 74089A   24200.60429149 -.00000019  00000+0  16896-3 0  9997
2 07529 101.9881 195.1554 0009430  88.1395  25.4628 12.53181666272011
NOAA 5                  
1 09057U 76077A   24200.48604878 -.00000007  00000+0  29542-3 0  9993
2 09057 102.2086 173.8598 0009495 175.6548 296.4931 12.37802523168020
TIROS N                 
1 11060U 78096A   24200.58979720  .00000518  00000+0  26910-3 0  9997
2 11060  98.5303 239.8081 0011677 104.2366 256.0108 14.18852548579664
NOAA 6                  
1 11416U 79057A   24200.56917991  .00000907  00000+0  33674-3 0  9997
2 11416  98.6277 221.7534 0010452 161.4048 198.7521 14.34577875350758
NOAA 7                  
1 12553U 81059A   24200.60229949  .00000209  00000+0  12499-3 0  9996
2 12553  98.8918 259.9528 0012509 104.2209 256.0356 14.17544525225763
NOAA 8                  
1 13923U 83022A   24200.57624907  .00000492  00000+0  21094-3 0  9994
2 13923  98.7304 200.5964 0015674 138.1936 222.0446 14.29278963151256
NOAA 9                  
1 15427U 84123A   24200.61299819  .00000421  00000+0  23437-3 0  9998
2 15427  99.1184 198.8209 0014986 163.6726 306.8019 14.16622610 44496
NOAA 10                 
1 16969U 86073A   24200.59276115  .00000468  00000+0  20368-3 0  9998
2 16969  98.6420 186.2326 0011067 237.6235 234.9953 14.28651431969636
NOAA 11                 
1 19531U 88089A   24200.52976159  .00000217  00000+0  13204-3 0  9996
2 19531  98.5198 161.7162 0011775 140.0072 220.1972 14.15552942848629
NOAA 12                 
1 21263U 91032A   24200.56309415  .00000324  00000+0  15265-3 0  9990
2 21263  98.5587 190.9727 0012500 270.4814  89.4934 14.26338494725350
NOAA 13                 
1 22739U 93050A   24200.58021646  .00000381  00000+0  22574-3 0  9994
2 22739  98.6075 156.8947 0008956 330.5099  29.5568 14.13240796594681
NOAA 14                 
1 23455U 94089A   24200.57047020  .00000200  00000+0  12577-3 0  9998
2 23455  98.4330 194.8376 0008372 295.8353  64.1957 14.14410847524435
NOAA 15                 
1 25338U 98030A   24200.58735469  .00000564  00000+0  25145-3 0  9990
2 25338  98.5673 227.0568 0009407 228.2903 131.7473 14.26631681361663
NOAA 16                 
1 26536U 00055A   24200.58091051  .00000274  00000+0  16738-3 0  9999
2 26536  98.5296 238.7410 0011219 141.3307 218.8672 14.13602094525018
NOAA 17                 
1 27453U 02032A   24200.58188879  .00000538  00000+0  24569-3 0  9994
2 27453  98.7641 151.1585 0010949 213.2117 146.8376 14.25617702147422
NOAA 18                 
1 28654U 05018A   24200.50105368  .00000474  00000+0  27670-3 0  9994
2 28654  98.8739 277.2059 0013623 338.6232  21.4370 14.13256289987681
NOAA 19                 
1 33591U 09005A   24200.59853863  .00000469  00000+0  27541-3 0  9990
2 33591  99.0454 256.7276 0013559 199.5947 160.4705 14.13051002795805
SUOMI NPP               
1 37849U 11061A   24200.54936819  .00000237  00000+0  13314-3 0  9999
2 37849  98.7222 138.0591 0001473 120.7861 239.3461 14.19531265659319
NOAA 20 (JPSS-1)        
1 43013U 17073A   24200.56647758  .00000250  00000+0  13917-3 0  9995
2 43013  98.7065 137.9631 0002158 110.4553 249.6856 14.19544976345353
NOAA 21 (JPSS-2)        
1 54234U 22150A   24200.53168610  .00000267  00000+0  14750-3 0  9990
2 54234  98.7519 138.0590 0001884  72.2979 287.8403 14.19540381 87421
ISS (ZARYA)             
1 25544U 98067A   24200.74361631  .00036347  00000+0  64015-3 0  9990
2 25544  51.6389 159.0077 0010261  80.2063 341.4596 15.50027308463446
CSS (TIANHE)            
1 48274U 21035A   24200.15200652  .00028183  00000+0  29164-3 0  9991
2 48274  41.4677 254.0111 0001888  72.4405 287.6641 15.64080795183941
ISS (NAUKA)             
1 49044U 21066A   24200.43596411  .00020221  00000+0  36084-3 0  9997
2 49044  51.6391 160.5288 0010308  79.5582  64.2556 15.49994992169179
FREGAT DEB              
1 49271U 11037PF  24200.38808768  .00033320  00000+0  64037-1 0  9992
2 49271  51.6831 258.1727 0999192 193.8202 163.3315 12.19336308139006
CSS (WENTIAN)           
1 53239U 22085A   24200.15200652  .00028183  00000+0  29164-3 0  9994
2 53239  41.4677 254.0111 0001888  72.4405 287.6641 15.64080795183375
CSS (MENGTIAN)          
1 54216U 22143A   24200.15200652  .00028183  00000+0  29164-3 0  9995
2 54216  41.4677 254.0111 0001888  72.4405 287.6641 15.64080795183371
TIANZHOU-7              
1 58811U 24013A   24200.15200652  .00028183  00000+0  29164-3 0  9998
2 58811  41.4677 254.0111 0001888  72.4405 287.6641 15.64080795183376
PROGRESS-MS 26          
1 58961U 24029A   24200.43596411  .00020221  00000+0  36084-3 0  9997
2 58961  51.6391 160.5288 0010308  79.5582  64.2556 15.49994992 23626
CREW DRAGON 8           
1 59097U 24042A   24200.43596411  .00020221  00000+0  36084-3 0  9993
2 59097  51.6391 160.5288 0010308  79.5582  64.2556 15.49994992 20837
SOYUZ-MS 25             
1 59294U 24055A   24200.43596411  .00020221  00000+0  36084-3 0  9996
2 59294  51.6391 160.5288 0010308  79.5582  64.2556 15.49994992 17821
MICROORBITER-1          
1 59483U 98067WF  24200.58995287  .00274373  00000+0  16749-2 0  9994
2 59483  51.6280 151.3202 0008859  84.4577 275.7433 15.75987256 15419
CURTIS                  
1 59507U 98067WG  24200.43397567  .00151337  00000+0  12868-2 0  9994
2 59507  51.6289 154.0403 0007523  78.4435 281.7406 15.68572415 15372
KASHIWA                 
1 59508U 98067WH  24200.56107636  .00392914  00000+0  18911-2 0  9998
2 59508  51.6251 150.3553 0009029  90.7543 269.4493 15.80953994 15432
1998-067WJ              
1 59559U 98067WJ  24200.31667896  .00139193  00000+0  12707-2 0  9991
2 59559  51.6317 155.5296 0007010  58.6021 301.5660 15.66875336 14210
1998-067WK              
1 59560U 98067WK  24200.31463176  .00642082  00000+0  22157-2 0  9994
2 59560  51.6252 150.9581 0008302  83.4444 276.7505 15.87352941 14201
